{
  "type": "FeatureCollection",
  "features": [
    {
      "type": "Feature",
      "properties": {
        "norad_id": 34003,
        "name": "COSMOS 2251 DEB",
        "group": "cosmos-2251-debris",
        "lat": 51.67211918732605,
        "lon": 98.91053163907927,
        "alt_km": 874.4156042144868,
        "timestamp": "2025-12-03T20:47:58.618984+00:00",
        "meta_object_name": "COSMOS 2251 DEB",
        "meta_object_id": "1993-036GN",
        "meta_epoch": "2025-12-03T08:04:48.560160",
        "meta_mean_motion": 13.84063937,
        "meta_eccentricity": 0.0273684,
        "meta_inclination": 74.0779,
        "meta_ra_of_asc_node": 300.9687,
        "meta_arg_of_pericenter": 55.2105,
        "meta_mean_anomaly": 307.4448,
        "meta_ephemeris_type": 0,
        "meta_classification_type": "U",
        "meta_norad_cat_id": 34003,
        "meta_element_set_no": 999,
        "meta_rev_at_epoch": 84295,
        "meta_bstar": 0.0024892,
        "meta_mean_motion_dot": 3.681e-05,
        "meta_mean_motion_ddot": 0,
        "tle_line1": "1 34003U 93036GN  25337.33667315  .00003681  00000+0  24892-2 0  9999",
        "tle_line2": "2 34003  74.0779 300.9687 0273684  55.2105 307.4448 13.84063937842959"
      },
      "geometry": {
        "type": "Point",
        "coordinates": [
          98.91053163907927,
          51.67211918732605
        ]
      }
    },
    {
      "type": "Feature",
      "properties": {
        "norad_id": 34004,
        "name": "COSMOS 2251 DEB",
        "group": "cosmos-2251-debris",
        "lat": -30.435089076208456,
        "lon": 159.42921539344948,
        "alt_km": 750.5515846768003,
        "timestamp": "2025-12-03T20:47:58.618994+00:00",
        "meta_object_name": "COSMOS 2251 DEB",
        "meta_object_id": "1993-036GP",
        "meta_epoch": "2025-12-03T09:52:51.470112",
        "meta_mean_motion": 14.48851653,
        "meta_eccentricity": 0.0033106,
        "meta_inclination": 74.0351,
        "meta_ra_of_asc_node": 330.5991,
        "meta_arg_of_pericenter": 344.1538,
        "meta_mean_anomaly": 15.8582,
        "meta_ephemeris_type": 0,
        "meta_classification_type": "U",
        "meta_norad_cat_id": 34004,
        "meta_element_set_no": 999,
        "meta_rev_at_epoch": 87895,
        "meta_bstar": 0.0018689,
        "meta_mean_motion_dot": 7.094e-05,
        "meta_mean_motion_ddot": 0,
        "tle_line1": "1 34004U 93036GP  25337.41170683  .00007094  00000+0  18689-2 0  9995",
        "tle_line2": "2 34004  74.0351 330.5991 0033106 344.1538  15.8582 14.48851653878955"
      },
      "geometry": {
        "type": "Point",
        "coordinates": [
          159.42921539344948,
          -30.435089076208456
        ]
      }
    },
    {
      "type": "Feature",
      "properties": {
        "norad_id": 34005,
        "name": "COSMOS 2251 DEB",
        "group": "cosmos-2251-debris",
        "lat": 39.561744157796035,
        "lon": -116.28897555455893,
        "alt_km": 745.0501659949796,
        "timestamp": "2025-12-03T20:47:58.619005+00:00",
        "meta_object_name": "COSMOS 2251 DEB",
        "meta_object_id": "1993-036GQ",
        "meta_epoch": "2025-12-03T11:24:36.604224",
        "meta_mean_motion": 14.4029318,
        "meta_eccentricity": 0.0020485,
        "meta_inclination": 74.0452,
        "meta_ra_of_asc_node": 230.7628,
        "meta_arg_of_pericenter": 350.695,
        "meta_mean_anomaly": 182.975,
        "meta_ephemeris_type": 0,
        "meta_classification_type": "U",
        "meta_norad_cat_id": 34005,
        "meta_element_set_no": 999,
        "meta_rev_at_epoch": 88245,
        "meta_bstar": 0.00017914,
        "meta_mean_motion_dot": 5.42e-06,
        "meta_mean_motion_ddot": 0,
        "tle_line1": "1 34005U 93036GQ  25337.47542366  .00000542  00000+0  17914-3 0  9995",
        "tle_line2": "2 34005  74.0452 230.7628 0020485 350.6950 182.9750 14.40293180882452"
      },
      "geometry": {
        "type": "Point",
        "coordinates": [
          -116.28897555455893,
          39.561744157796035
        ]
      }
    },
    {
      "type": "Feature",
      "properties": {
        "norad_id": 34006,
        "name": "COSMOS 2251 DEB",
        "group": "cosmos-2251-debris",
        "lat": 23.286906313810018,
        "lon": 168.20819065944687,
        "alt_km": 586.3629051178777,
        "timestamp": "2025-12-03T20:47:58.619015+00:00",
        "meta_object_name": "COSMOS 2251 DEB",
        "meta_object_id": "1993-036GR",
        "meta_epoch": "2025-12-02T19:02:31.984800",
        "meta_mean_motion": 14.93623986,
        "meta_eccentricity": 0.0012293,
        "meta_inclination": 74.054,
        "meta_ra_of_asc_node": 163.2959,
        "meta_arg_of_pericenter": 122.0289,
        "meta_mean_anomaly": 253.9852,
        "meta_ephemeris_type": 0,
        "meta_classification_type": "U",
        "meta_norad_cat_id": 34006,
        "meta_element_set_no": 999,
        "meta_rev_at_epoch": 88520,
        "meta_bstar": 0.0040343993,
        "meta_mean_motion_dot": 0.00042902,
        "meta_mean_motion_ddot": 0,
        "tle_line1": "1 34006U 93036GR  25336.79342575  .00042902  00000+0  40344-2 0  9998",
        "tle_line2": "2 34006  74.0540 163.2959 0012293 122.0289 253.9852 14.93623986885209"
      },
      "geometry": {
        "type": "Point",
        "coordinates": [
          168.20819065944687,
          23.286906313810018
        ]
      }
    },
    {
      "type": "Feature",
      "properties": {
        "norad_id": 34007,
        "name": "COSMOS 2251 DEB",
        "group": "cosmos-2251-debris",
        "lat": -4.484156379524207,
        "lon": -174.73559322064898,
        "alt_km": 658.0771999563858,
        "timestamp": "2025-12-03T20:47:58.619026+00:00",
        "meta_object_name": "COSMOS 2251 DEB",
        "meta_object_id": "1993-036GS",
        "meta_epoch": "2025-12-03T11:45:59.522400",
        "meta_mean_motion": 14.64678866,
        "meta_eccentricity": 0.004477,
        "meta_inclination": 74.0201,
        "meta_ra_of_asc_node": 4.7007,
        "meta_arg_of_pericenter": 142.512,
        "meta_mean_anomaly": 217.9186,
        "meta_ephemeris_type": 0,
        "meta_classification_type": "U",
        "meta_norad_cat_id": 34007,
        "meta_element_set_no": 999,
        "meta_rev_at_epoch": 88944,
        "meta_bstar": 0.00096345,
        "meta_mean_motion_dot": 5.174e-05,
        "meta_mean_motion_ddot": 0,
        "tle_line1": "1 34007U 93036GS  25337.49027225  .00005174  00000+0  96345-3 0  9992",
        "tle_line2": "2 34007  74.0201   4.7007 0044770 142.5120 217.9186 14.64678866889448"
      },
      "geometry": {
        "type": "Point",
        "coordinates": [
          -174.73559322064898,
          -4.484156379524207
        ]
      }
    },
    {
      "type": "Feature",
      "properties": {
        "norad_id": 34008,
        "name": "COSMOS 2251 DEB",
        "group": "cosmos-2251-debris",
        "lat": 3.190169429945667,
        "lon": 165.82141993756528,
        "alt_km": 800.1885257628219,
        "timestamp": "2025-12-03T20:47:58.619036+00:00",
        "meta_object_name": "COSMOS 2251 DEB",
        "meta_object_id": "1993-036GT",
        "meta_epoch": "2025-12-03T12:19:41.168352",
        "meta_mean_motion": 14.33135694,
        "meta_eccentricity": 0.0023984,
        "meta_inclination": 74.0342,
        "meta_ra_of_asc_node": 347.3805,
        "meta_arg_of_pericenter": 344.4117,
        "meta_mean_anomaly": 171.8228,
        "meta_ephemeris_type": 0,
        "meta_classification_type": "U",
        "meta_norad_cat_id": 34008,
        "meta_element_set_no": 999,
        "meta_rev_at_epoch": 87832,
        "meta_bstar": 0.00018116,
        "meta_mean_motion_dot": 4.73e-06,
        "meta_mean_motion_ddot": 0,
        "tle_line1": "1 34008U 93036GT  25337.51367093  .00000473  00000+0  18116-3 0  9993",
        "tle_line2": "2 34008  74.0342 347.3805 0023984 344.4117 171.8228 14.33135694878323"
      },
      "geometry": {
        "type": "Point",
        "coordinates": [
          165.82141993756528,
          3.190169429945667
        ]
      }
    },
    {
      "type": "Feature",
      "properties": {
        "norad_id": 34009,
        "name": "COSMOS 2251 DEB",
        "group": "cosmos-2251-debris",
        "lat": -29.167756029927453,
        "lon": -177.65440147970182,
        "alt_km": 801.8618838086559,
        "timestamp": "2025-12-03T20:47:58.619047+00:00",
        "meta_object_name": "COSMOS 2251 DEB",
        "meta_object_id": "1993-036GU",
        "meta_epoch": "2025-12-03T12:11:45.577824",
        "meta_mean_motion": 14.33210474,
        "meta_eccentricity": 0.0026262,
        "meta_inclination": 74.0372,
        "meta_ra_of_asc_node": 353.8077,
        "meta_arg_of_pericenter": 66.4617,
        "meta_mean_anomaly": 94.8413,
        "meta_ephemeris_type": 0,
        "meta_classification_type": "U",
        "meta_norad_cat_id": 34009,
        "meta_element_set_no": 999,
        "meta_rev_at_epoch": 87813,
        "meta_bstar": 0.00019532,
        "meta_mean_motion_dot": 5.13e-06,
        "meta_mean_motion_ddot": 0,
        "tle_line1": "1 34009U 93036GU  25337.50816641  .00000513  00000+0  19532-3 0  9999",
        "tle_line2": "2 34009  74.0372 353.8077 0026262  66.4617  94.8413 14.33210474878137"
      },
      "geometry": {
        "type": "Point",
        "coordinates": [
          -177.65440147970182,
          -29.167756029927453
        ]
      }
    }
  ]
}